0 COSMOS 385
1 04799U 70108A   13282.86340584 -.00000016  00000-0  70597-5 0  7819
2 04799 074.0225 186.9172 0003131 044.4913 019.6093 13.76664794151534
0 COSMOS 385
1 04799U 70108A   13284.18921257  .00000013  00000-0  35804-4 0  7826
2 04799 074.0224 184.7097 0003175 041.7051 110.5905 13.76664653151713
0 COSMOS 385
1 04799U 70108A   13285.27632508  .00000016  00000-0  39515-4 0  7832
2 04799 074.0223 182.8996 0003220 039.7238 098.2480 13.76664618151861
0 COSMOS 385
1 04799U 70108A   13286.29386391  .00000035  00000-0  59004-4 0  7848
2 04799 074.0221 181.2054 0003246 037.7044 101.2686 13.76664523152003
0 COSMOS 385
1 04799U 70108A   13287.31153583  .00000041  00000-0  64342-4 0  7856
2 04799 074.0218 179.5110 0003264 035.3323 105.3003 13.76664603152148
0 COSMOS 385
1 04799U 70108A   13288.74752429  .00000039  00000-0  63117-4 0  7865
2 04799 074.0214 177.1201 0003306 032.6945 021.9841 13.76664806152346
0 COSMOS 385
1 04799U 70108A   13289.84033644  .00000043  00000-0  67181-4 0  7879
2 04799 074.0212 175.3006 0003331 030.2103 038.3821 13.76665121152492
0 COSMOS 385
1 04799U 70108A   13291.00972657  .00000029  00000-0  52263-4 0  7886
2 04799 074.0211 173.3536 0003374 027.6571 074.2250 13.76665387152650
0 COSMOS 385
1 04799U 70108A   13292.17497722  .00000013  00000-0  35793-4 0  7893
2 04799 074.0209 171.4133 0003415 025.4644 089.2007 13.76665475152814
0 COSMOS 385
1 04799U 70108A   13293.26997252 -.00000002  00000-0  20919-4 0  7902
2 04799 074.0209 169.5900 0003449 023.0412 116.3547 13.76665694152968
0 COSMOS 385
1 04799U 70108A   13294.85515889  .00000007  00000-0  29910-4 0  7915
2 04799 074.0209 166.9505 0003496 019.9097 052.6820 13.76665784153186
0 COSMOS 385
1 04799U 70108A   13295.87456094  .00000014  00000-0  37395-4 0  7925
2 04799 074.0209 165.2531 0003529 017.8234 065.0036 13.76665799153323
